ALOS (DAICHI)           
1 28931U 06002A   26040.45432585  .00001823  00000+0  31433-3 0  9999
2 28931  98.1170 356.5627 0001971  64.5774 295.5635 14.69715799 69330
H-2A R/B                
1 28932U 06002B   26040.36139517  .00009109  00000+0  46368-3 0  9997
2 28932  98.2360 184.9729 0052784 338.7408  21.1628 15.15846943 90143
RESURS-DK 1             
1 29228U 06021A   26040.16658403  .00003259  00000+0  19244-3 0  9998
2 29228  69.9346 310.7957 0004574 204.7790 155.3157 15.12577967 83214
CZ-4B R/B               
1 29507U 06046C   26040.10910776  .00004742  00000+0  24291-3 0  9999
2 29507  97.5654  85.0925 0033628   9.5359 350.6505 15.16593541 55715
CZ-2C R/B               
1 31114U 07010B   26040.33443602  .00000138  00000+0  82268-4 0  9996
2 31114  98.3970 155.0371 0059262  17.7665 342.5566 14.20236247975694
COSMO-SKYMED 1          
1 31598U 07023A   26040.51321345  .00003986  00000+0  35780-3 0  9995
2 31598  97.8857 231.3247 0000849  80.8462 279.2855 14.96309247 10692
COSMOS 2428             
1 31792U 07029A   26040.07501547  .00000315  00000+0  19476-3 0  9999
2 31792  70.9396 263.4100 0007339 308.5248  51.5214 14.12933085960050
SL-16 R/B               
1 31793U 07029B   26040.48746052  .00000398  00000+0  23107-3 0  9994
2 31793  70.9735 231.6660 0001975 278.1487 101.9110 14.14832651961384
KORONAS-FOTON           
1 33504U 09003A   26040.22874063  .00011292  00000+0  25878-3 0  9998
2 33504  82.4317 305.4475 0008938 259.3060 100.7181 15.42567366941358
CZ-2C R/B               
1 37731U 11030B   26040.45213289  .00001837  00000+0  23737-3 0  9995
2 37731  97.8495 358.2935 0054234  82.4178  37.1717 14.81112276785917
H-2A R/B                
1 38341U 12025E   26040.48480265  .00004176  00000+0  38105-3 0  9995
2 38341  98.4677   5.2913 0045745  46.1266 314.3716 14.94916398744006
SHIJIAN-16 (SJ-16)      
1 39358U 13057A   26040.53852296  .00001134  00000+0  11380-3 0  9990
2 39358  74.9705 238.3772 0016767 182.9301 177.1792 14.92241461667305
